{
  "type": "FeatureCollection",
  "features": [
    {
      "type": "Feature",
      "properties": {
        "norad_id": 55973,
        "name": "TIANMU-1 03",
        "group": "weather",
        "lat": -5.652198466890291,
        "lon": -31.305223711214936,
        "alt_km": 448.94905120029125,
        "timestamp": "2025-12-12T18:57:43.775214+00:00",
        "meta_object_name": "TIANMU-1 03",
        "meta_object_id": "2023-039A",
        "meta_epoch": "2025-12-12T08:48:30.623040",
        "meta_mean_motion": 15.40906348,
        "meta_eccentricity": 0.0004432,
        "meta_inclination": 97.5108,
        "meta_ra_of_asc_node": 149.0082,
        "meta_arg_of_pericenter": 61.7788,
        "meta_mean_anomaly": 298.3905,
        "meta_ephemeris_type": 0,
        "meta_classification_type": "U",
        "meta_norad_cat_id": 55973,
        "meta_element_set_no": 999,
        "meta_rev_at_epoch": 15200,
        "meta_bstar": 0.00053132553,
        "meta_mean_motion_dot": 0.00021795,
        "meta_mean_motion_ddot": 0,
        "tle_line1": "1 55973U 23039A   25346.36702110  .00021795  00000+0  53133-3 0  9997",
        "tle_line2": "2 55973  97.5108 149.0082 0004432  61.7788 298.3905 15.40906348152009"
      },
      "geometry": {
        "type": "Point",
        "coordinates": [
          -31.305223711214936,
          -5.652198466890291
        ]
      }
    },
    {
      "type": "Feature",
      "properties": {
        "norad_id": 55974,
        "name": "TIANMU-1 04",
        "group": "weather",
        "lat": -59.703121714056294,
        "lon": 161.67273500476142,
        "alt_km": 451.06058140600726,
        "timestamp": "2025-12-12T18:57:43.775225+00:00",
        "meta_object_name": "TIANMU-1 04",
        "meta_object_id": "2023-039B",
        "meta_epoch": "2025-12-12T08:19:01.953696",
        "meta_mean_motion": 15.41241543,
        "meta_eccentricity": 0.00050896,
        "meta_inclination": 97.5041,
        "meta_ra_of_asc_node": 148.1784,
        "meta_arg_of_pericenter": 56.7309,
        "meta_mean_anomaly": 303.4424,
        "meta_ephemeris_type": 0,
        "meta_classification_type": "U",
        "meta_norad_cat_id": 55974,
        "meta_element_set_no": 999,
        "meta_rev_at_epoch": 15200,
        "meta_bstar": 0.00053498631,
        "meta_mean_motion_dot": 0.00022194,
        "meta_mean_motion_ddot": 0,
        "tle_line1": "1 55974U 23039B   25346.34655039  .00022194  00000+0  53499-3 0  9992",
        "tle_line2": "2 55974  97.5041 148.1784 0005089  56.7309 303.4424 15.41241543152001"
      },
      "geometry": {
        "type": "Point",
        "coordinates": [
          161.67273500476142,
          -59.703121714056294
        ]
      }
    },
    {
      "type": "Feature",
      "properties": {
        "norad_id": 55975,
        "name": "TIANMU-1 05",
        "group": "weather",
        "lat": -28.504050348771248,
        "lon": 153.23376999732233,
        "alt_km": 450.2785253016955,
        "timestamp": "2025-12-12T18:57:43.775236+00:00",
        "meta_object_name": "TIANMU-1 05",
        "meta_object_id": "2023-039C",
        "meta_epoch": "2025-12-12T08:10:36.416928",
        "meta_mean_motion": 15.40862542,
        "meta_eccentricity": 0.00043647,
        "meta_inclination": 97.5087,
        "meta_ra_of_asc_node": 148.6646,
        "meta_arg_of_pericenter": 78.9786,
        "meta_mean_anomaly": 281.1951,
        "meta_ephemeris_type": 0,
        "meta_classification_type": "U",
        "meta_norad_cat_id": 55975,
        "meta_element_set_no": 999,
        "meta_rev_at_epoch": 15198,
        "meta_bstar": 0.00052456581,
        "meta_mean_motion_dot": 0.00021484,
        "meta_mean_motion_ddot": 0,
        "tle_line1": "1 55975U 23039C   25346.34069927  .00021484  00000+0  52457-3 0  9992",
        "tle_line2": "2 55975  97.5087 148.6646 0004364  78.9786 281.1951 15.40862542151984"
      },
      "geometry": {
        "type": "Point",
        "coordinates": [
          153.23376999732233,
          -28.504050348771248
        ]
      }
    },
    {
      "type": "Feature",
      "properties": {
        "norad_id": 55976,
        "name": "TIANMU-1 06",
        "group": "weather",
        "lat": -71.05577157096259,
        "lon": 172.19417044861893,
        "alt_km": 452.14122680737364,
        "timestamp": "2025-12-12T18:57:43.775249+00:00",
        "meta_object_name": "TIANMU-1 06",
        "meta_object_id": "2023-039D",
        "meta_epoch": "2025-12-12T08:22:10.989120",
        "meta_mean_motion": 15.41294362,
        "meta_eccentricity": 0.00046568,
        "meta_inclination": 97.5098,
        "meta_ra_of_asc_node": 149.1377,
        "meta_arg_of_pericenter": 74.0172,
        "meta_mean_anomaly": 286.1587,
        "meta_ephemeris_type": 0,
        "meta_classification_type": "U",
        "meta_norad_cat_id": 55976,
        "meta_element_set_no": 999,
        "meta_rev_at_epoch": 15200,
        "meta_bstar": 0.00054281072,
        "meta_mean_motion_dot": 0.00022559,
        "meta_mean_motion_ddot": 0,
        "tle_line1": "1 55976U 23039D   25346.34873830  .00022559  00000+0  54281-3 0  9990",
        "tle_line2": "2 55976  97.5098 149.1377 0004656  74.0172 286.1587 15.41294362152008"
      },
      "geometry": {
        "type": "Point",
        "coordinates": [
          172.19417044861893,
          -71.05577157096259
        ]
      }
    },
    {
      "type": "Feature",
      "properties": {
        "norad_id": 56232,
        "name": "FENGYUN 3G",
        "group": "weather",
        "lat": 6.906729851061183,
        "lon": -126.96696762503949,
        "alt_km": 410.46277335436844,
        "timestamp": "2025-12-12T18:57:43.775259+00:00",
        "meta_object_name": "FENGYUN 3G",
        "meta_object_id": "2023-055A",
        "meta_epoch": "2025-12-12T06:34:28.707168",
        "meta_mean_motion": 15.5360363,
        "meta_eccentricity": 0.00092661,
        "meta_inclination": 49.9933,
        "meta_ra_of_asc_node": 229.8586,
        "meta_arg_of_pericenter": 146.3193,
        "meta_mean_anomaly": 213.8365,
        "meta_ephemeris_type": 0,
        "meta_classification_type": "U",
        "meta_norad_cat_id": 56232,
        "meta_element_set_no": 999,
        "meta_rev_at_epoch": 15095,
        "meta_bstar": 0.00067846894,
        "meta_mean_motion_dot": 0.00043969,
        "meta_mean_motion_ddot": 0,
        "tle_line1": "1 56232U 23055A   25346.27394337  .00043969  00000+0  67847-3 0  9996",
        "tle_line2": "2 56232  49.9933 229.8586 0009266 146.3193 213.8365 15.53603630150957"
      },
      "geometry": {
        "type": "Point",
        "coordinates": [
          -126.96696762503949,
          6.906729851061183
        ]
      }
    },
    {
      "type": "Feature",
      "properties": {
        "norad_id": 57166,
        "name": "METEOR-M2 3",
        "group": "weather",
        "lat": 34.19039683139464,
        "lon": -133.74408755993298,
        "alt_km": 811.5736112813547,
        "timestamp": "2025-12-12T18:57:43.775270+00:00",
        "meta_object_name": "METEOR-M2 3",
        "meta_object_id": "2023-091A",
        "meta_epoch": "2025-12-12T08:09:52.230240",
        "meta_mean_motion": 14.24026017,
        "meta_eccentricity": 0.00039285,
        "meta_inclination": 98.6379,
        "meta_ra_of_asc_node": 39.8865,
        "meta_arg_of_pericenter": 9.9816,
        "meta_mean_anomaly": 350.1441,
        "meta_ephemeris_type": 0,
        "meta_classification_type": "U",
        "meta_norad_cat_id": 57166,
        "meta_element_set_no": 999,
        "meta_rev_at_epoch": 12792,
        "meta_bstar": 2.9407963e-05,
        "meta_mean_motion_dot": 2.4e-07,
        "meta_mean_motion_ddot": 0,
        "tle_line1": "1 57166U 23091A   25346.34018785  .00000024  00000+0  29408-4 0  9998",
        "tle_line2": "2 57166  98.6379  39.8865 0003928   9.9816 350.1441 14.24026017127929"
      },
      "geometry": {
        "type": "Point",
        "coordinates": [
          -133.74408755993298,
          34.19039683139464
        ]
      }
    },
    {
      "type": "Feature",
      "properties": {
        "norad_id": 57399,
        "name": "TIANMU-1 07",
        "group": "weather",
        "lat": -9.020556691188203,
        "lon": 37.802674442526786,
        "alt_km": 485.77441464909043,
        "timestamp": "2025-12-12T18:57:43.775280+00:00",
        "meta_object_name": "TIANMU-1 07",
        "meta_object_id": "2023-101A",
        "meta_epoch": "2025-12-12T08:00:01.753632",
        "meta_mean_motion": 15.28063179,
        "meta_eccentricity": 0.00056214,
        "meta_inclination": 97.288,
        "meta_ra_of_asc_node": 36.1918,
        "meta_arg_of_pericenter": 82.7243,
        "meta_mean_anomaly": 277.4636,
        "meta_ephemeris_type": 0,
        "meta_classification_type": "U",
        "meta_norad_cat_id": 57399,
        "meta_element_set_no": 999,
        "meta_rev_at_epoch": 13309,
        "meta_bstar": 0.00040040666,
        "meta_mean_motion_dot": 0.00010895,
        "meta_mean_motion_ddot": 0,
        "tle_line1": "1 57399U 23101A   25346.33335363  .00010895  00000+0  40041-3 0  9993",
        "tle_line2": "2 57399  97.2880  36.1918 0005621  82.7243 277.4636 15.28063179133090"
      },
      "geometry": {
        "type": "Point",
        "coordinates": [
          37.802674442526786,
          -9.020556691188203
        ]
      }
    }
  ]
}